H1 CPF 01  gfz 2022 09 13 12  7562 tandemx   
H2 1003001  6202 36605    2022 09 13 12 59 42 2022 09 18 00 00 42   120 1 1  0 0 0
H9
10 0 59837  56142.000000  0   -2707356.555   -981823.251  -6264883.608
10 0 59837  56262.000000  0   -2046108.777   -422710.839  -6571081.440
10 0 59837  56382.000000  0   -1339673.978    131755.820  -6762643.921
10 0 59837  56502.000000  0    -600468.268    671291.551  -6836276.126
10 0 59837  56622.000000  0     158361.433   1186097.987  -6790711.164
10 0 59837  56742.000000  0     923164.676   1667036.366  -6626729.495
10 0 59837  56862.000000  0    1680027.222   2105786.109  -6347149.588
10 0 59837  56982.000000  0    2415019.207   2494987.179  -5956784.498
10 0 59837  57102.000000  0    3114447.846   2828363.355  -5462367.350
10 0 59837  57222.000000  0    3765109.473   3100824.160  -4872445.612
10 0 59837  57342.000000  0    4354540.151   3308545.738  -4197245.925
10 0 59837  57462.000000  0    4871259.124   3449027.351  -3448506.963
10 0 59837  57582.000000  0    5304998.535   3521121.658  -2639282.708
10 0 59837  57702.000000  0    5646914.653   3525039.366  -1783720.133
10 0 59837  57822.000000  0    5889776.454   3462325.967   -896812.402
10 0 59837  57942.000000  0    6028124.530   3335810.482      5866.578
10 0 59837  58062.000000  0    6058397.443   3149527.618    908441.175
10 0 59837  58182.000000  0    5979020.751   2908614.520   1795021.269
10 0 59837  58302.000000  0    5790455.380   2619185.864   2649990.490
10 0 59837  58422.000000  0    5495205.849   2288189.455   3458290.383
10 0 59837  58542.000000  0    5097785.645   1923245.417   4205693.094
10 0 59837  58662.000000  0    4604641.579   1532474.471   4879055.761
10 0 59837  58782.000000  0    4024042.554   1124319.120   5466551.283
10 0 59837  58902.000000  0    3365932.620    707362.506   5957876.613
10 0 59837  59022.000000  0    2641750.293    290148.548   6344428.026
10 0 59837  59142.000000  0    1864224.249   -118991.002   6619444.378
10 0 59837  59262.000000  0    1047146.583   -512101.278   6778120.480
10 0 59837  59382.000000  0     205125.140   -881758.224   6817687.067
10 0 59837  59502.000000  0    -646678.673  -1221207.937   6737455.012
10 0 59837  59622.000000  0   -1492822.343  -1524490.028   6538825.844
10 0 59837  59742.000000  0   -2317860.806  -1786542.148   6225267.411
10 0 59837  59862.000000  0   -3106626.190  -2003283.799   5802257.868
10 0 59837  59982.000000  0   -3844509.146  -2171680.971   5277198.590
10 0 59837  60102.000000  0   -4517734.971  -2289789.303   4659289.903
10 0 59837  60222.000000  0   -5113626.923  -2356773.812   3959374.101
10 0 59837  60342.000000  0   -5620851.847  -2372904.241   3189748.034
10 0 59837  60462.000000  0   -6029643.632  -2339527.013   2363949.068
10 0 59837  60582.000000  0   -6332000.591  -2259015.374   1496516.473
10 0 59837  60702.000000  0   -6521850.659  -2134697.139    602729.341
10 0 59837  60822.000000  0   -6595176.667  -1970761.034   -301670.184
10 0 59837  60942.000000  0   -6550102.377  -1772144.868  -1200763.062
10 0 59837  61062.000000  0   -6386933.744  -1544408.439  -2078743.066
10 0 59837  61182.000000  0   -6108155.977  -1293594.901  -2920202.010
10 0 59837  61302.000000  0   -5718387.343  -1026084.223  -3710404.923
10 0 59837  61422.000000  0   -5224291.695   -748442.061  -4435549.787
10 0 59837  61542.000000  0   -4634452.311   -467267.718  -5083006.710
10 0 59837  61662.000000  0   -3959210.355   -189045.528  -5641532.268
10 0 59837  61782.000000  0   -3210472.448     79997.120  -6101455.582
10 0 59837  61902.000000  0   -2401493.272    334022.331  -6454833.617
10 0 59837  62022.000000  0   -1546638.004    567701.554  -6695576.632
10 0 59837  62142.000000  0    -661127.510    776321.325  -6819542.625
10 0 59837  62262.000000  0     239228.191    955874.535  -6824599.675
10 0 59837  62382.000000  0    1138304.103   1103134.076  -6710658.624
10 0 59837  62502.000000  0    2019942.494   1215709.270  -6479677.231
10 0 59837  62622.000000  0    2868237.730   1292084.654  -6135630.173
10 0 59837  62742.000000  0    3667818.971   1331639.453  -5684447.010
10 0 59837  62862.000000  0    4404125.534   1334647.627  -5133919.743
10 0 59837  62982.000000  0    5063674.021   1302258.990  -4493580.645
10 0 59837  63102.000000  0    5634311.261   1236461.398  -3774547.756
10 0 59837  63222.000000  0    6105446.546   1140024.088  -2989340.951
10 0 59837  63342.000000  0    6468259.326   1016423.170  -2151671.103
10 0 59837  63462.000000  0    6715877.555    869751.095  -1276203.406
10 0 59837  63582.000000  0    6843519.766    704611.110   -378298.728
10 0 59837  63702.000000  0    6848596.344    525999.734    526260.809
10 0 59837  63822.000000  0    6730768.450    339180.720   1421555.606
10 0 59837  63942.000000  0    6491962.878    149551.750   2291817.682
10 0 59837  64062.000000  0    6136339.325    -37490.937   3121718.120
10 0 59837  64182.000000  0    5670212.815   -216687.644   3896644.645
10 0 59837  64302.000000  0    5101933.008   -383044.907   4602963.349
10 0 59837  64422.000000  0    4441726.430   -531957.948   5228261.623
10 0 59837  64542.000000  0    3701500.740   -659323.147   5761565.999
10 0 59837  64662.000000  0    2894620.481   -761636.218   6193530.383
10 0 59837  64782.000000  0    2035658.499   -836075.766   6516594.601
10 0 59837  64902.000000  0    1140128.261   -880570.250   6725111.484
10 0 59837  65022.000000  0     224199.576   -893847.292   6815440.520
10 0 59837  65142.000000  0    -695594.563   -875463.909   6786006.110
10 0 59837  65262.000000  0   -1602655.427   -825818.038   6637322.411
10 0 59837  65382.000000  0   -2480616.626   -746140.212   6371984.488
10 0 59837  65502.000000  0   -3313638.033   -638465.969   5994626.397
10 0 59837  65622.000000  0   -4086693.268   -505589.301   5511846.660
10 0 59837  65742.000000  0   -4785845.810   -350998.525   4932099.498
10 0 59837  65862.000000  0   -5398507.410   -178795.051   4265551.920
10 0 59837  65982.000000  0   -5913673.271      6403.186   3523909.085
10 0 59837  66102.000000  0   -6322128.621    199571.915   2720211.026
10 0 59837  66222.000000  0   -6616624.041    395402.277   1868603.565
10 0 59837  66342.000000  0   -6792013.556    588430.860    984085.575
10 0 59837  66462.000000  0   -6845351.630    773174.412     82238.085
10 0 59837  66582.000000  0   -6775945.643    944266.574   -821059.153
10 0 59837  66702.000000  0   -6585361.711   1096592.635  -1709916.548
10 0 59837  66822.000000  0   -6277385.816   1225418.508  -2568721.079
10 0 59837  66942.000000  0   -5857942.847   1326512.389  -3382417.805
10 0 59837  67062.000000  0   -5334970.185   1396253.899  -4136778.601
10 0 59837  67182.000000  0   -4718254.275   1431728.653  -4818649.752
10 0 59837  67302.000000  0   -4019235.005   1430806.741  -5416176.477
10 0 59837  67422.000000  0   -3250783.146   1392203.354  -5919000.202
10 0 59837  67542.000000  0   -2426956.667   1315520.225  -6318427.782
10 0 59837  67662.000000  0   -1562739.937   1201267.962  -6607570.692
10 0 59837  67782.000000  0    -673770.588   1050869.393  -6781451.844
10 0 59837  67902.000000  0     223938.912    866643.021  -6837080.845
10 0 59837  68022.000000  0    1114281.562    651768.298  -6773500.192
10 0 59837  68142.000000  0    1981338.604    410231.784  -6591802.332
10 0 59837  68262.000000  0    2809658.180    146755.241  -6295112.282
10 0 59837  68382.000000  0    3584526.143   -133292.669  -5888539.908
10 0 59837  68502.000000  0    4292224.672   -424001.217  -5379099.826
10 0 59837  68622.000000  0    4920275.609   -719036.285  -4775602.393
10 0 59837  68742.000000  0    5457666.861  -1011772.109  -4088513.229
10 0 59837  68862.000000  0    5895054.087  -1295433.066  -3329781.435
10 0 59837  68982.000000  0    6224934.144  -1563243.085  -2512639.506
10 0 59837  69102.000000  0    6441786.147  -1808579.572  -1651376.992
10 0 59837  69222.000000  0    6542175.619  -2025127.933   -761090.987
10 0 59837  69342.000000  0    6524818.595  -2207032.534    142581.334
10 0 59837  69462.000000  0    6390603.667  -2349040.960   1043743.547
10 0 59837  69582.000000  0    6142569.986  -2446636.691   1926528.267
10 0 59837  69702.000000  0    5785841.223  -2496157.683   2775385.787
10 0 59837  69822.000000  0    5327517.826  -2494896.937   3575366.681
10 0 59837  69942.000000  0    4776528.856  -2441182.298   4312391.302
10 0 59837  70062.000000  0    4143450.935  -2334433.939   4973499.792
10 0 59837  70182.000000  0    3440298.055  -2175199.472   5547081.968
10 0 59837  70302.000000  0    2680283.746  -1965164.612   6023079.576
10 0 59837  70422.000000  0    1877565.764  -1707139.253   6393157.362
10 0 59837  70542.000000  0    1046977.496  -1405020.803   6650843.297
10 0 59837  70662.000000  0     203750.558  -1063734.663   6791636.005
10 0 59837  70782.000000  0    -636765.535   -689152.676   6813077.845
10 0 59837  70902.000000  0   -1459381.760   -287991.816   6714794.291
10 0 59837  71022.000000  0   -2249342.795    132305.967   6498500.040
10 0 59837  71142.000000  0   -2992590.784    563711.169   6167971.394
10 0 59837  71262.000000  0   -3676016.379    997758.961   5728985.114
10 0 59837  71382.000000  0   -4287693.617   1425713.781   5189223.883
10 0 59837  71502.000000  0   -4817094.143   1838743.903   4558147.806
10 0 59837  71622.000000  0   -5255275.905   2228103.250   3846833.248
10 0 59837  71742.000000  0   -5595041.971   2585315.757   3067781.099
10 0 59837  71862.000000  0   -5831066.242   2902358.495   2234698.149
10 0 59837  71982.000000  0   -5959984.116   3171839.636   1362254.339
10 0 59837  72102.000000  0   -5980444.584   3387167.118    465818.509
10 0 59837  72222.000000  0   -5893120.004   3542702.151   -438820.382
10 0 59837  72342.000000  0   -5700675.600   3633894.130  -1335739.774
10 0 59837  72462.000000  0   -5407699.663   3657394.460  -2209173.012
10 0 59837  72582.000000  0   -5020593.107   3611144.760  -3043795.288
99
